NORAD_CAT_ID,OBJECT_NAME,OBJECT_TYPE,EPOCH,MEAN_MOTION,ECCENTRICITY,INCLINATION,RA_OF_ASC_NODE,ARG_OF_PERICENTER,MEAN_ANOMALY,BSTAR,MEAN_MOTION_DOT,MEAN_MOTION_DDOT,TLE_LINE0,TLE_LINE1,TLE_LINE2,SEMIMAJOR_AXIS,PERIOD,APOGEE,PERIGEE,DECAYED
53922.0,STARLINK-5002,PAYLOAD,2024-08-14 13:01:18,15.08842198,0.000159,53.2181,2.3379,112.892,247.224,8.1374e-05,1.007e-05,0.0,0 STARLINK-5002,1 53922U 22119AN  24227.54257936  .00001007  00000-0  81374-4 0  9999,2 53922  53.2181   2.3379 0001590 112.8920 247.2240 15.08842198105031,6917.874,95.437,540.839,538.639,0.0
53922.0,STARLINK-5002,PAYLOAD,2024-08-14 14:36:41,15.08844194,0.0001559,53.2179,2.0406,112.585,247.5307,0.00015017,2.103e-05,0.0,0 STARLINK-5002,1 53922U 22119AN  24227.60881815  .00002103  00000-0  15017-3 0  9993,2 53922  53.2179   2.0406 0001559 112.5850 247.5307 15.08844194105462,6917.868,95.437,540.811,538.654,0.0
53922.0,STARLINK-5002,PAYLOAD,2024-08-14 16:12:05,15.08847021,0.0001443,53.2185,1.7437,114.7709,245.3434,0.00047674,7.309e-05,0.0,0 STARLINK-5002,1 53922U 22119AN  24227.67505843  .00007309  00000-0  47674-3 0  9991,2 53922  53.2185   1.7437 0001443 114.7709 245.3434 15.08847021105478,6917.859,95.437,540.722,538.726,0.0
53922.0,STARLINK-5002,PAYLOAD,2024-08-16 01:35:11,15.08844105,7.16e-05,53.2158,355.4983,89.8197,270.2877,0.00016302,2.308e-05,0.0,0 STARLINK-5002,1 53922U 22119AN  24229.06610123  .00002308  00000-0  16302-3 0  9992,2 53922  53.2158 355.4983 0000716  89.8197 270.2877 15.08844105105263,6917.868,95.437,540.228,539.238,0.0
53922.0,STARLINK-5002,PAYLOAD,2024-08-17 07:47:31,15.08834479,8.31e-05,53.216,349.8482,78.8961,281.2125,2.1386e-05,5.3e-07,0.0,0 STARLINK-5002,1 53922U 22119AN  24230.32466854  .00000053  00000-0  21386-4 0  9997,2 53922  53.2160 349.8482 0000831  78.8961 281.2125 15.08834479105454,6917.897,95.438,540.337,539.187,0.0
53922.0,STARLINK-5002,PAYLOAD,2024-08-18 12:24:27,15.08850838,0.0001481,53.219,344.4995,83.5617,276.5544,0.00022414,3.282e-05,0.0,0 STARLINK-5002,1 53922U 22119AN  24231.51698234  .00003282  00000-0  22414-3 0  9997,2 53922  53.2190 344.4995 0001481  83.5617 276.5544 15.08850838105639,6917.847,95.437,540.737,538.688,0.0
53922.0,STARLINK-5002,PAYLOAD,2024-08-18 13:59:50,15.08855146,0.000171,53.2178,344.1998,81.1437,278.9749,0.00031296,4.698e-05,0.0,0 STARLINK-5002,1 53922U 22119AN  24231.58322084  .00004698  00000-0  31296-3 0  9991,2 53922  53.2178 344.1998 0001710  81.1437 278.9749 15.08855146106062,6917.834,95.437,540.882,538.516,0.0
53922.0,STARLINK-5002,PAYLOAD,2024-08-19 10:39:51,15.08844424,0.0001244,53.2187,340.3356,116.9564,243.1556,9.4039e-05,1.209e-05,0.0,0 STARLINK-5002,1 53922U 22119AN  24232.44434233  .00001209  00000-0  94039-4 0  9997,2 53922  53.2187 340.3356 0001244 116.9564 243.1556 15.08844424105772,6917.867,95.437,540.592,538.871,0.0
53922.0,STARLINK-5002,PAYLOAD,2024-08-19 13:50:37,15.08842464,0.0001579,53.2178,339.7406,99.6234,260.4936,1.152e-05,-1.05e-06,0.0,0 STARLINK-5002,1 53922U 22119AN  24232.57682275 -.00000105  00000-0  11520-4 0  9991,2 53922  53.2178 339.7406 0001579  99.6234 260.4936 15.08842464106218,6917.873,95.437,540.83,538.646,0.0
53922.0,STARLINK-5002,PAYLOAD,2024-08-20 12:06:00,15.08854962,0.000139,53.2174,335.5775,104.856,255.2587,-8.3861e-05,-1.623e-05,0.0,0 STARLINK-5002,1 53922U 22119AN  24233.50417549 -.00001623  00000-0 -83861-4 0  9999,2 53922  53.2174 335.5775 0001390 104.8560 255.2587 15.08854962105937,6917.835,95.437,540.661,538.738,0.0
53922.0,STARLINK-5002,PAYLOAD,2024-08-20 13:41:23,15.08856964,0.0001469,53.2178,335.2803,105.604,254.5114,1.2681e-05,-8.6e-07,0.0,0 STARLINK-5002,1 53922U 22119AN  24233.57041460 -.00000086  00000-0  12681-4 0  9994,2 53922  53.2178 335.2803 0001469 105.6040 254.5114 15.08856964106369,6917.829,95.436,540.71,538.677,0.0
53922.0,STARLINK-5002,PAYLOAD,2024-08-21 11:56:48,15.08847481,0.0001425,53.2175,331.1159,79.996,280.1193,0.00024895,3.677e-05,0.0,0 STARLINK-5002,1 53922U 22119AN  24234.49777854  .00003677  00000-0  24895-3 0  9996,2 53922  53.2175 331.1159 0001425  79.9960 280.1193 15.08847481106086,6917.858,95.437,540.708,538.737,0.0
53922.0,STARLINK-5002,PAYLOAD,2024-08-21 13:32:10,15.08860598,0.0001297,53.2175,330.8183,88.2621,271.8519,0.00044536,6.811e-05,0.0,0 STARLINK-5002,1 53922U 22119AN  24234.56401276  .00006811  00000-0  44536-3 0  9993,2 53922  53.2175 330.8183 0001297  88.2621 271.8519 15.08860598106514,6917.817,95.436,540.58,538.785,0.0
